{
  "type": "FeatureCollection",
  "features": [
    {
      "type": "Feature",
      "properties": {
        "norad_id": 47051,
        "name": "COSMOS 2251 DEB",
        "group": "cosmos-2251-debris",
        "lat": 58.99084287472075,
        "lon": -7.646932975791814,
        "alt_km": 1240.778607435749,
        "timestamp": "2025-12-02T07:10:09.514937+00:00",
        "meta_object_name": "COSMOS 2251 DEB",
        "meta_object_id": "1993-036BXF",
        "meta_epoch": "2025-11-30T21:16:46.923744",
        "meta_mean_motion": 13.67055603,
        "meta_eccentricity": 0.03412724,
        "meta_inclination": 74.1034,
        "meta_ra_of_asc_node": 202.9595,
        "meta_arg_of_pericenter": 319.0702,
        "meta_mean_anomaly": 49.7973,
        "meta_ephemeris_type": 0,
        "meta_classification_type": "U",
        "meta_norad_cat_id": 47051,
        "meta_element_set_no": 999,
        "meta_rev_at_epoch": 59776,
        "meta_bstar": 0.0014437039,
        "meta_mean_motion_dot": 1.783e-05,
        "meta_mean_motion_ddot": 0,
        "tle_line1": "1 47051U 93036BXF 25334.88665421  .00001783  00000+0  14437-2 0  9994",
        "tle_line2": "2 47051  74.1034 202.9595 0341272 319.0702  49.7973 13.67055603597760"
      },
      "geometry": {
        "type": "Point",
        "coordinates": [
          -7.646932975791814,
          58.99084287472075
        ]
      }
    },
    {
      "type": "Feature",
      "properties": {
        "norad_id": 47052,
        "name": "COSMOS 2251 DEB",
        "group": "cosmos-2251-debris",
        "lat": 47.018707882316725,
        "lon": 161.59342338811416,
        "alt_km": 744.377860196575,
        "timestamp": "2025-12-02T07:10:09.514947+00:00",
        "meta_object_name": "COSMOS 2251 DEB",
        "meta_object_id": "1993-036BXG",
        "meta_epoch": "2025-11-29T08:23:30.956640",
        "meta_mean_motion": 14.35450474,
        "meta_eccentricity": 0.00577024,
        "meta_inclination": 74.0487,
        "meta_ra_of_asc_node": 4.8695,
        "meta_arg_of_pericenter": 82.9608,
        "meta_mean_anomaly": 293.3927,
        "meta_ephemeris_type": 0,
        "meta_classification_type": "U",
        "meta_norad_cat_id": 47052,
        "meta_element_set_no": 999,
        "meta_rev_at_epoch": 61597,
        "meta_bstar": 0.00022809202,
        "meta_mean_motion_dot": 6.42e-06,
        "meta_mean_motion_ddot": 0,
        "tle_line1": "1 47052U 93036BXG 25333.34966385  .00000642  00000+0  22809-3 0  9994",
        "tle_line2": "2 47052  74.0487   4.8695 0057702  82.9608 293.3927 14.35450474615976"
      },
      "geometry": {
        "type": "Point",
        "coordinates": [
          161.59342338811416,
          47.018707882316725
        ]
      }
    },
    {
      "type": "Feature",
      "properties": {
        "norad_id": 47059,
        "name": "COSMOS 2251 DEB",
        "group": "cosmos-2251-debris",
        "lat": 54.423542678350756,
        "lon": 53.43025621146699,
        "alt_km": 522.9086347131442,
        "timestamp": "2025-12-02T07:10:09.514957+00:00",
        "meta_object_name": "COSMOS 2251 DEB",
        "meta_object_id": "1993-036BXP",
        "meta_epoch": "2025-11-30T02:15:08.813664",
        "meta_mean_motion": 15.10829083,
        "meta_eccentricity": 0.00120344,
        "meta_inclination": 73.9823,
        "meta_ra_of_asc_node": 261.6801,
        "meta_arg_of_pericenter": 69.4658,
        "meta_mean_anomaly": 304.3449,
        "meta_ephemeris_type": 0,
        "meta_classification_type": "U",
        "meta_norad_cat_id": 47059,
        "meta_element_set_no": 999,
        "meta_rev_at_epoch": 8114,
        "meta_bstar": 0.003761596,
        "meta_mean_motion_dot": 0.00063166,
        "meta_mean_motion_ddot": 0,
        "tle_line1": "1 47059U 93036BXP 25334.09385201  .00063166  00000+0  37616-2 0  9997",
        "tle_line2": "2 47059  73.9823 261.6801 0012034  69.4658 304.3449 15.10829083 81149"
      },
      "geometry": {
        "type": "Point",
        "coordinates": [
          53.43025621146699,
          54.423542678350756
        ]
      }
    },
    {
      "type": "Feature",
      "properties": {
        "norad_id": 47062,
        "name": "COSMOS 2251 DEB",
        "group": "cosmos-2251-debris",
        "lat": 21.714648023542072,
        "lon": 101.92052228842985,
        "alt_km": 1214.4679773303997,
        "timestamp": "2025-12-02T07:10:09.514966+00:00",
        "meta_object_name": "COSMOS 2251 DEB",
        "meta_object_id": "1993-036BXS",
        "meta_epoch": "2025-11-30T14:51:43.416000",
        "meta_mean_motion": 13.71861812,
        "meta_eccentricity": 0.0323451,
        "meta_inclination": 74.0848,
        "meta_ra_of_asc_node": 98.1641,
        "meta_arg_of_pericenter": 226.4501,
        "meta_mean_anomaly": 143.6726,
        "meta_ephemeris_type": 0,
        "meta_classification_type": "U",
        "meta_norad_cat_id": 47062,
        "meta_element_set_no": 999,
        "meta_rev_at_epoch": 55436,
        "meta_bstar": 0.002328,
        "meta_mean_motion_dot": 3.04e-05,
        "meta_mean_motion_ddot": 0,
        "tle_line1": "1 47062U 93036BXS 25334.61925250  .00003040  00000+0  23280-2 0  9990",
        "tle_line2": "2 47062  74.0848  98.1641 0323451 226.4501 143.6726 13.71861812554369"
      },
      "geometry": {
        "type": "Point",
        "coordinates": [
          101.92052228842985,
          21.714648023542072
        ]
      }
    },
    {
      "type": "Feature",
      "properties": {
        "norad_id": 47068,
        "name": "COSMOS 2251 DEB",
        "group": "cosmos-2251-debris",
        "lat": -27.34290775079787,
        "lon": -145.33088628079605,
        "alt_km": 708.9713608845896,
        "timestamp": "2025-12-02T07:10:09.514976+00:00",
        "meta_object_name": "COSMOS 2251 DEB",
        "meta_object_id": "1993-036BXY",
        "meta_epoch": "2025-11-29T23:07:05.456640",
        "meta_mean_motion": 14.53009239,
        "meta_eccentricity": 0.00184767,
        "meta_inclination": 74.0247,
        "meta_ra_of_asc_node": 227.5957,
        "meta_arg_of_pericenter": 315.2113,
        "meta_mean_anomaly": 44.7557,
        "meta_ephemeris_type": 0,
        "meta_classification_type": "U",
        "meta_norad_cat_id": 47068,
        "meta_element_set_no": 999,
        "meta_rev_at_epoch": 61571,
        "meta_bstar": 0.0010778362,
        "meta_mean_motion_dot": 4.433e-05,
        "meta_mean_motion_ddot": 0,
        "tle_line1": "1 47068U 93036BXY 25333.96325760  .00004433  00000+0  10778-2 0  9998",
        "tle_line2": "2 47068  74.0247 227.5957 0018476 315.2113  44.7557 14.53009239615718"
      },
      "geometry": {
        "type": "Point",
        "coordinates": [
          -145.33088628079605,
          -27.34290775079787
        ]
      }
    },
    {
      "type": "Feature",
      "properties": {
        "norad_id": 47073,
        "name": "COSMOS 2251 DEB",
        "group": "cosmos-2251-debris",
        "lat": 27.68988688039279,
        "lon": 31.396132305918055,
        "alt_km": 913.9740501182032,
        "timestamp": "2025-12-02T07:10:09.514988+00:00",
        "meta_object_name": "COSMOS 2251 DEB",
        "meta_object_id": "1993-036BYD",
        "meta_epoch": "2025-11-28T23:48:38.837952",
        "meta_mean_motion": 14.04684181,
        "meta_eccentricity": 0.01626495,
        "meta_inclination": 74.0833,
        "meta_ra_of_asc_node": 225.7586,
        "meta_arg_of_pericenter": 267.1836,
        "meta_mean_anomaly": 91.0675,
        "meta_ephemeris_type": 0,
        "meta_classification_type": "U",
        "meta_norad_cat_id": 47073,
        "meta_element_set_no": 999,
        "meta_rev_at_epoch": 60168,
        "meta_bstar": 0.0003803633,
        "meta_mean_motion_dot": 6.6e-06,
        "meta_mean_motion_ddot": 0,
        "tle_line1": "1 47073U 93036BYD 25332.99211618  .00000660  00000+0  38036-3 0  9998",
        "tle_line2": "2 47073  74.0833 225.7586 0162649 267.1836  91.0675 14.04684181601680"
      },
      "geometry": {
        "type": "Point",
        "coordinates": [
          31.396132305918055,
          27.68988688039279
        ]
      }
    },
    {
      "type": "Feature",
      "properties": {
        "norad_id": 47074,
        "name": "COSMOS 2251 DEB",
        "group": "cosmos-2251-debris",
        "lat": -46.006642388723726,
        "lon": 164.99820144383207,
        "alt_km": 844.2544249066677,
        "timestamp": "2025-12-02T07:10:09.514998+00:00",
        "meta_object_name": "COSMOS 2251 DEB",
        "meta_object_id": "1993-036BYE",
        "meta_epoch": "2025-11-16T21:16:13.914624",
        "meta_mean_motion": 14.35315626,
        "meta_eccentricity": 0.01424183,
        "meta_inclination": 74.0922,
        "meta_ra_of_asc_node": 355.9879,
        "meta_arg_of_pericenter": 30.5468,
        "meta_mean_anomaly": 146.7456,
        "meta_ephemeris_type": 0,
        "meta_classification_type": "U",
        "meta_norad_cat_id": 47074,
        "meta_element_set_no": 999,
        "meta_rev_at_epoch": 2311,
        "meta_bstar": 0.002262034,
        "meta_mean_motion_dot": 7.254e-05,
        "meta_mean_motion_ddot": 0,
        "tle_line1": "1 47074U 93036BYE 25320.88627216  .00007254  00000+0  22620-2 0  9996",
        "tle_line2": "2 47074  74.0922 355.9879 0142418  30.5468 146.7456 14.35315626 23116"
      },
      "geometry": {
        "type": "Point",
        "coordinates": [
          164.99820144383207,
          -46.006642388723726
        ]
      }
    }
  ]
}